C/2021 T4 (Lemmon),e,160.7786,257.8861,329.7444,3232,0.0000054,0.99954188,0.0000,07/31.4469/2023,2000,g  7.5,4.0
# From MPEC 2024-JU4
P/2021 V2 (Fuls),e,12.6905,232.2748,259.9356,9.096005,0.0359276,0.61542357,37.8606,12/11.0/2025,2000,g 10.0,4.0
# From MPEC 2024-TD8
C/2021 X1 (Maury-Attard),h,05/27.3813/2023,140.1101,10.6326,334.6390,1.000787,3.234811,2000,7.0,4.0
# From MPEC 2024-GJ3
C/2021 Y1 (ATLAS),h,05/01.0380/2023,77.1761,244.7652,245.8541,1.001716,2.032354,2000,7.0,4.0
# From MPEC 2024-P23
C/2022 A2 (PANSTARRS),h,02/18.2111/2023,108.1889,171.6200,88.3695,1.000076,1.735185,2000,9.5,4.0
# From MPEC 2024-UQ8
C/2022 A3 (Lemmon-ATLAS),e,88.3573,325.4517,234.8848,942.1552,0.0000341,0.99606766,0.0000,09/29.0514/2023,2000,g  8.0,4.0
# From MPEC 2023-J29
P/2022 BV9 (Lemmon),e,11.9221,337.3047,16.2810,4.366660,0.1080140,0.23331155,202.7177,12/11.0/2025,2000,g  9.5,4.0
# From MPEC 2023-J29
P/2022 C1 (PANSTARRS),e,4.7634,113.0952,9.5038,7.237027,0.0506249,0.44920515,75.7414,12/11.0/2025,2000,g 12.0,4.0
# From MPEC 2023-VM5
P/2022 C2 (PANSTARRS),e,9.9837,135.2584,89.1219,6.032520,0.0665206,0.44220281,81.3470,12/11.0/2025,2000,g 12.5,4.0
# From MPEC 2023-UR6
P/2022 C3 (PANSTARRS),e,12.8252,139.0412,93.7871,9.615340,0.0330565,0.54559145,41.6433,12/11.0/2025,2000,g 11.5,4.0
# From MPEC 2022-K19
P/2022 D1 (PANSTARRS),e,44.0587,47.9376,88.6786,7.406930,0.0488930,0.54812773,76.5124,12/11.0/2025,2000,g 12.5,4.0
# From MPEC 2022-L66
P/2022 E1 (Christensen),e,19.0070,113.3406,114.8488,3.777630,0.1342378,0.22059642,171.9738,12/11.0/2025,2000,g 13.5,4.0
# From MPEC 2025-X35
C/2022 E2 (ATLAS),h,09/14.2122/2024,137.1411,125.3960,41.7650,1.000454,3.667091,2000,5.0,4.0
# From MPC186629
C/2022 E3 (ZTF),h,01/12.4046/2023,109.1796,302.4929,145.8477,1.000010,1.115477,2000,7.5,4.0
# From MPEC 2024-PC5
C/2022 F1 (ATLAS),e,57.9877,350.6364,278.3968,1470166,0.0000000,0.99999593,0.0000,08/06.3499/2022,2000,g  7.0,4.0
# From MPC185656
C/2022 H1 (PANSTARRS),e,49.8623,6.3144,246.2895,852.4372,0.0000396,0.99098035,0.0000,01/18.5108/2024,2000,g  6.0,4.0
# From MPC181181
C/2022 JK5 (PANSTARRS),e,16.8249,59.6521,247.3748,43.63305,0.0034196,0.93821150,3.2736,12/11.0/2025,2000,g 11.0,4.0
# From MPEC 2022-ST7
C/2022 K1 (Leonard),h,12/16.3999/2021,41.9772,136.3709,142.5010,1.000518,3.983666,2000,11.0,4.0
# From MPEC 2025-X35
C/2022 L2 (ATLAS),h,03/12.0684/2024,129.3095,39.2533,199.9291,1.000558,2.693986,2000,6.5,4.0
# From MPEC 2025-X35
C/2022 N2 (PANSTARRS),h,07/31.8973/2025,5.5030,319.7363,75.4169,1.003513,3.825606,2000,6.0,4.0
# From MPEC 2024-A43
C/2022 O1 (ATLAS),h,02/15.0109/2022,71.0610,49.9069,268.9358,1.000736,7.435235,2000,6.0,4.0
# From MPEC 2023-XP6
P/2022 P2 (ZTF),e,12.4415,291.1682,137.8006,4.492707,0.1035004,0.55782597,129.2732,12/11.0/2025,2000,g 12.5,4.0
# From MPEC 2025-X35
C/2022 QE78 (ATLAS),e,36.6512,119.8886,0.6483,10380,0.0000009,0.99947243,0.0000,09/12.1950/2025,2000,g  5.0,4.0
# From MPEC 2024-M41
P/2022 R1 (PANSTARRS),e,7.3845,175.6143,221.6910,7.128658,0.0517836,0.50021823,41.4110,12/11.0/2025,2000,g 11.5,4.0
# From MPC184410
C/2022 R3 (Leonard),h,03/05.9810/2023,43.0649,8.2650,72.9498,1.001528,5.133540,2000,9.0,4.0
# From MPEC 2022-WQ9
P/2022 R5 (PANSTARRS),e,15.2923,115.0398,240.5070,3.070460,0.1831888,0.19456963,237.2517,12/11.0/2025,2000,g 16.0,4.0
# From MPEC 2025-X35
C/2022 R6 (PANSTARRS),h,08/26.6462/2025,57.0233,150.7818,319.9544,1.005112,6.565639,2000,5.0,4.0
# From MPEC 2023-HD1
P/2022 S1 (PANSTARRS),e,34.5636,136.0866,262.8571,6.408585,0.0607520,0.50739213,73.5262,12/11.0/2025,2000,g 13.0,4.0
# From MPC185657
C/2022 S4 (Lemmon),e,101.2072,220.1796,268.5607,1444,0.0000180,0.99808763,0.0000,07/18.7959/2024,2000,g  8.0,4.0
# From MPEC 2024-O39
C/2022 T1 (Lemmon),h,02/17.4810/2024,22.5399,236.9095,324.2926,1.000518,3.443795,2000,9.0,4.0
# From MPEC 2025-UQ3
C/2022 U1 (Leonard),h,03/26.1771/2024,128.1450,72.5304,78.6183,1.000525,4.202148,2000,8.5,4.0
# From MPC188409
C/2022 U3 (Bok),e,33.6613,272.7870,189.1459,20754,0.0000003,0.99976739,0.0000,07/28.6817/2024,2000,g  7.5,4.0
# From MPEC 2023-W26
C/2022 U4 (Bok),e,52.0580,132.9176,88.9733,3006,0.0000060,0.99903636,0.0000,08/03.6916/2023,2000,g 10.5,4.0
# From MPEC 2024-H50
C/2022 V2 (Lemmon),e,98.9057,332.8413,168.9651,36.64359,0.0044433,0.94364839,3.4222,12/11.0/2025,2000,g 12.0,4.0
# From MPEC 2023-CD7
P/2022 W1 (Rankin),e,13.4622,38.8365,17.9551,6.976842,0.0534830,0.51630127,63.2156,12/11.0/2025,2000,g 12.5,4.0
# From MPEC 2024-EF7
C/2022 W2 (ATLAS),e,63.4949,320.4274,123.3364,341.8012,0.0001560,0.99085383,0.0000,03/08.6710/2023,2000,g 11.5,4.0
# From MPEC 2023-M14
C/2022 Y1 (Hogan),e,18.8563,285.8725,174.9197,12.62561,0.0219698,0.76539296,24.3697,12/11.0/2025,2000,g 13.0,4.0
# From MPEC 2025-X35
C/2023 A3 (Tsuchinshan-ATLAS),h,09/27.7569/2024,139.1090,21.6037,308.5354,1.000152,0.391583,2000,6.5,3.2
# From MPEC 2024-F34
P/2023 B1 (PANSTARRS),e,14.5877,78.5622,81.8318,7.069132,0.0524391,0.13125374,49.8317,12/11.0/2025,2000,g  5.5,4.0
# From MPEC 2023-F81
P/2023 B3 (PANSTARRS),e,9.1559,153.9762,240.4038,4.551548,0.1014999,0.12206902,195.1422,12/11.0/2025,2000,g 10.5,4.0
# From MPEC 2025-X35
C/2023 C2 (ATLAS),e,48.3224,301.0059,357.4338,1957,0.0000114,0.99878997,0.0000,11/16.7361/2024,2000,g  7.0,4.0
# From MPEC 2023-N01
C/2023 F2 (SOHO),h,03/21.3758/2023,72.3956,71.4416,57.5753,1.011045,0.033413,2000,9.0,4.0
# From MPEC 2025-X35
C/2023 F3 (ATLAS),h,02/02.6251/2025,145.9632,109.4675,265.5377,1.002989,5.190945,2000,6.0,4.0
# From MPEC 2025-VD2
C/2023 H1 (PANSTARRS),e,21.7833,292.6469,333.7366,744.8166,0.0000485,0.99402916,0.0000,11/28.5440/2024,2000,g  8.5,4.0
# From MPC186630
C/2023 H3 (PANSTARRS),e,2.4883,55.0853,193.2423,13.61541,0.0196181,0.61582455,12.9856,12/11.0/2025,2000,g 10.0,4.0
# From MPEC 2023-SQ0
A/2023 H4,e,76.5734,230.8268,65.0083,139.3952,0.0005989,0.98476024,0.0000,08/08.5104/2023,2000,g 18.0,2.0
# From MPEC 2025-X35
C/2023 H5 (Lemmon),h,06/30.3612/2025,97.8546,159.4757,60.1123,1.000477,4.312683,2000,7.0,4.0
# From MPEC 2024-UA9
P/2023 JN16 (Lemmon),e,3.7012,11.8340,353.4142,2.697599,0.2224529,0.14735786,76.6572,12/11.0/2025,2000,g 14.0,4.0
# From MPEC 2024-GJ3
C/2023 K1 (ATLAS),e,137.9978,223.6950,337.4031,575.2775,0.0000714,0.99645618,0.0000,09/07.4174/2023,2000,g 13.0,4.0
# From MPEC 2023-N01
P/2023 M1 (PANSTARRS),e,12.2894,216.8601,79.6890,6.837896,0.0551214,0.58657349,40.1195,12/11.0/2025,2000,g 13.5,4.0
# From MPEC 2024-TD8
P/2023 M2 (PANSTARRS),e,19.7200,83.2560,243.6668,5.586445,0.0746450,0.36957152,64.7130,12/11.0/2025,2000,g 12.5,4.0
# From MPEC 2024-TP3
P/2023 M4 (ATLAS),e,7.5919,296.2767,320.4376,5.444075,0.0775922,0.27900865,103.8093,12/11.0/2025,2000,g  7.5,4.0
# From MPEC 2024-MB8
C/2023 P1 (Nishimura),e,132.4803,66.8094,116.2183,56.12925,0.0023438,0.99600844,0.0000,09/17.5687/2023,2000,g 10.0,4.0
# From MPC188410
C/2023 Q1 (PANSTARRS),h,12/01.1135/2024,36.6447,7.1239,84.4226,1.004841,2.576051,2000,10.0,4.0
# From MPEC 2024-N80
C/2023 Q2 (PANSTARRS),e,104.0619,92.6794,171.6706,335.7843,0.0001602,0.99044492,0.0000,06/23.8618/2024,2000,g 11.5,4.0
# From MPEC 2025-X35
C/2023 R1 (PANSTARRS),h,04/13.4140/2026,149.3162,62.5667,144.2651,1.002404,3.570027,2000,6.0,4.0
# From MPEC 2024-L77
C/2023 R2 (PANSTARRS),h,08/12.1921/2024,30.6927,188.8790,337.3276,1.000325,0.904900,2000,10.5,4.0
# From MPC188410
C/2023 RN3 (ATLAS),e,10.3512,207.0632,130.6323,10.16421,0.0304154,0.49013277,32.1077,12/11.0/2025,2000,g  7.5,4.0
# From MPEC 2025-X35
C/2023 RS61 (PANSTARRS),e,19.9462,347.0290,119.4831,11.89706,0.0240184,0.32796309,333.8785,12/11.0/2025,2000,g  6.8,4.0
# From MPC188410
P/2023 S1 (PANSTARRS),e,9.1576,317.2886,180.3319,3.844333,0.1307593,0.31849640,37.8860,12/11.0/2025,2000,g 11.5,4.0
# From MPEC 2024-BE0
P/2023 T1 (PANSTARRS),e,6.6122,249.5776,202.8916,4.226290,0.1134397,0.33315958,64.3288,12/11.0/2025,2000,g 14.0,4.0
# From MPC188410
C/2023 T3 (Fuls),e,27.2198,246.0024,302.8512,926.2871,0.0000350,0.99616930,0.0000,01/25.3945/2025,2000,g  8.5,4.0
# From MPEC 2025-UQ3
C/2023 TD22 (Lemmon),e,170.4890,5.5730,32.5396,48.37401,0.0029294,0.95129115,1.3203,12/11.0/2025,2000,g 12.5,4.0
# From MPEC 2025-WD0
C/2023 U1 (Fuls),e,108.1473,305.8007,255.6589,3263,0.0000053,0.99847571,0.0000,10/13.0714/2024,2000,g  8.0,4.0
# From MPC188411
C/2023 V1 (Lemmon),h,07/13.0603/2025,102.0112,15.0489,103.3185,1.000444,5.092595,2000,8.5,4.0
# From MPC184411
P/2023 V2 (PANSTARRS),e,9.8883,95.4732,330.5165,7.217001,0.0508357,0.56982738,34.3876,12/11.0/2025,2000,g 13.5,4.0
# From MPEC 2024-A43
C/2023 V3 (PANSTARRS),e,40.6532,91.2789,291.8074,12.72721,0.0217072,0.64683597,18.7194,12/11.0/2025,2000,g 11.5,4.0
# From MPEC 2025-UQ3
C/2023 V4 (Camarasa-Duszanowicz),h,05/30.4262/2024,67.1165,66.3271,50.8778,1.001251,1.122018,2000,12.0,4.0
# From MPC181182
P/2023 V6 (PANSTARRS),e,3.9769,189.5072,191.8991,5.282961,0.0811686,0.17525416,90.2034,12/11.0/2025,2000,g 11.5,4.0
# From MPEC 2024-GJ3
C/2023 X1 (Leonard),e,110.5918,136.9744,321.4774,155.4231,0.0005087,0.99387584,0.0000,10/17.8861/2023,2000,g 13.5,3.2
# From MPEC 2025-X35
C/2023 X2 (Lemmon),h,12/28.3858/2025,76.9805,66.3009,64.7910,1.000035,5.088547,2000,8.5,3.2
# From MPEC 2024-A43
P/2023 X3 (PANSTARRS),e,4.4832,62.0160,40.9096,4.246709,0.1126225,0.28616167,67.3134,12/11.0/2025,2000,g 15.5,4.0
# From MPC184411
C/2023 X4 (Hogan),e,11.5920,28.7707,100.6171,9.928206,0.0315063,0.63144691,17.7946,12/11.0/2025,2000,g 12.0,4.0
# From MPEC 2024-DA2
C/2023 X7 (PANSTARRS),h,05/15.1575/2025,69.1233,119.2035,354.4000,1.000360,4.820430,2000,9.0,4.0
# From MPC181183
P/2023 Y2 (Gibbs),e,6.9923,79.2301,16.9316,3.748059,0.1358296,0.39220669,115.9743,12/11.0/2025,2000,g 15.5,4.0
# From MPEC 2025-X35
C/2024 A1 (ATLAS),h,06/13.1833/2025,94.5049,112.1401,353.2233,1.000979,3.874529,2000,7.0,4.0
# From MPC182881
C/2024 A2 (ATLAS),e,119.1147,78.1657,295.4908,32.16521,0.0054029,0.94156239,3.1946,12/11.0/2025,2000,g 12.5,4.0
# From MPC188411
C/2024 B1 (Lemmon),h,10/07.7516/2024,70.8998,79.1885,66.2239,1.001148,1.633863,2000,13.0,4.0
# From MPC181183
